{"type": "FeatureCollection", "features": [ {"type": "Feature", "properties": {"norad_id": 33619, "name": "FENGYUN 1C DEB", "group": "fengyun-1c-debris", "lat": 22.162171435017775, "lon": 51.997684860489876, "alt_km": 800.1076068707944, "timestamp": "2025-12-12T05:47:29.057816+00:00", "meta": {"OBJECT_NAME": "FENGYUN 1C DEB", "OBJECT_ID": "1999-025DDC", "EPOCH": "2025-12-10T11:20:06.017568", "MEAN_MOTION": 14.17489179, "ECCENTRICITY": 0.00510783, "INCLINATION": 98.8615, "RA_OF_ASC_NODE": 53.8773, "ARG_OF_PERICENTER": 52.8594, "MEAN_ANOMALY": 307.723, "EPHEMERIS_TYPE": 0, "CLASSIFICATION_TYPE": "U", "NORAD_CAT_ID": 33619, "ELEMENT_SET_NO": 999, "REV_AT_EPOCH": 63592, "BSTAR": 0.0019317895, "MEAN_MOTION_DOT": 3.926e-05, "MEAN_MOTION_DDOT": 0}, "tle": {"line1": "1 33619U 99025DDC 25344.47229187  .00003926  00000+0  19318-2 0  9998", "line2": "2 33619  98.8615  53.8773 0051078  52.8594 307.7230 14.17489179635926"}}, "geometry": {"type": "Point", "coordinates": [51.997684860489876, 22.162171435017775]}}, {"type": "Feature", "properties": {"norad_id": 33621, "name": "FENGYUN 1C DEB", "group": "fengyun-1c-debris", "lat": -71.70160852611332, "lon": -137.3221603525306, "alt_km": 631.8370227436108, "timestamp": "2025-12-12T05:47:29.057826+00:00", "meta": {"OBJECT_NAME": "FENGYUN 1C DEB", "OBJECT_ID": "1999-025DDE", "EPOCH": "2025-12-10T20:17:14.702784", "MEAN_MOTION": 14.19482835, "ECCENTRICITY": 0.02846988, "INCLINATION": 98.1391, "RA_OF_ASC_NODE": 195.7496, "ARG_OF_PERICENTER": 300.0128, "MEAN_ANOMALY": 57.3079, "EPHEMERIS_TYPE": 0, "CLASSIFICATION_TYPE": "U", "NORAD_CAT_ID": 33621, "ELEMENT_SET_NO": 999, "REV_AT_EPOCH": 64217, "BSTAR": 0.00099524636, "MEAN_MOTION_DOT": 3.099e-05, "MEAN_MOTION_DDOT": 0}, "tle": {"line1": "1 33621U 99025DDE 25344.84530906  .00003099  00000+0  99525-3 0  9996", "line2": "2 33621  98.1391 195.7496 0284698 300.0128  57.3079 14.19482835642176"}}, "geometry": {"type": "Point", "coordinates": [-137.3221603525306, -71.70160852611332]}}, {"type": "Feature", "properties": {"norad_id": 33625, "name": "FENGYUN 1C DEB", "group": "fengyun-1c-debris", "lat": 81.35439297915597, "lon": 10.76783809360762, "alt_km": 572.4810830075094, "timestamp": "2025-12-12T05:47:29.057836+00:00", "meta": {"OBJECT_NAME": "FENGYUN 1C DEB", "OBJECT_ID": "1999-025DDJ", "EPOCH": "2025-12-01T01:24:31.444992", "MEAN_MOTION": 14.60592393, "ECCENTRICITY": 0.02269611, "INCLINATION": 98.6203, "RA_OF_ASC_NODE": 85.2252, "ARG_OF_PERICENTER": 171.2387, "MEAN_ANOMALY": 189.288, "EPHEMERIS_TYPE": 0, "CLASSIFICATION_TYPE": "U", "NORAD_CAT_ID": 33625, "ELEMENT_SET_NO": 999, "REV_AT_EPOCH": 61220, "BSTAR": 0.0017865562, "MEAN_MOTION_DOT": 0.00012473, "MEAN_MOTION_DDOT": 0}, "tle": {"line1": "1 33625U 99025DDJ 25335.05869728  .00012473  00000+0  17866-2 0  9993", "line2": "2 33625  98.6203  85.2252 0226961 171.2387 189.2880 14.60592393612207"}}, "geometry": {"type": "Point", "coordinates": [10.76783809360762, 81.35439297915597]}}, {"type": "Feature", "properties": {"norad_id": 33630, "name": "FENGYUN 1C DEB", "group": "fengyun-1c-debris", "lat": -36.18042618531822, "lon": 98.81680699373784, "alt_km": 865.2451161408608, "timestamp": "2025-12-12T05:47:29.057846+00:00", "meta": {"OBJECT_NAME": "FENGYUN 1C DEB", "OBJECT_ID": "1999-025DDP", "EPOCH": "2025-12-09T13:35:56.277312", "MEAN_MOTION": 14.17713216, "ECCENTRICITY": 0.0135528, "INCLINATION": 98.6166, "RA_OF_ASC_NODE": 89.8546, "ARG_OF_PERICENTER": 77.2482, "MEAN_ANOMALY": 284.3802, "EPHEMERIS_TYPE": 0, "CLASSIFICATION_TYPE": "U", "NORAD_CAT_ID": 33630, "ELEMENT_SET_NO": 999, "REV_AT_EPOCH": 64366, "BSTAR": 0.00061826, "MEAN_MOTION_DOT": 1.337e-05, "MEAN_MOTION_DDOT": 0}, "tle": {"line1": "1 33630U 99025DDP 25343.56662358  .00001337  00000+0  61826-3 0  9997", "line2": "2 33630  98.6166  89.8546 0135528  77.2482 284.3802 14.17713216643662"}}, "geometry": {"type": "Point", "coordinates": [98.81680699373784, -36.18042618531822]}}, {"type": "Feature", "properties": {"norad_id": 33633, "name": "FENGYUN 1C DEB", "group": "fengyun-1c-debris", "lat": 2.645360014303064, "lon": 80.06835428314888, "alt_km": 881.8806548536959, "timestamp": "2025-12-12T05:47:29.057857+00:00", "meta": {"OBJECT_NAME": "FENGYUN 1C DEB", "OBJECT_ID": "1999-025DDS", "EPOCH": "2025-12-09T05:09:41.870880", "MEAN_MOTION": 14.19278753, "ECCENTRICITY": 0.0083508, "INCLINATION": 99.0481, "RA_OF_ASC_NODE": 77.4006, "ARG_OF_PERICENTER": 160.8678, "MEAN_ANOMALY": 228.508, "EPHEMERIS_TYPE": 0, "CLASSIFICATION_TYPE": "U", "NORAD_CAT_ID": 33633, "ELEMENT_SET_NO": 999, "REV_AT_EPOCH": 90661, "BSTAR": 0.003396465, "MEAN_MOTION_DOT": 7.339e-05, "MEAN_MOTION_DDOT": 0}, "tle": {"line1": "1 33633U 99025DDS 25343.21506795  .00007339  00000+0  33965-2 0  9994", "line2": "2 33633  99.0481  77.4006 0083508 160.8678 228.5080 14.19278753906619"}}, "geometry": {"type": "Point", "coordinates": [80.06835428314888, 2.645360014303064]}}, {"type": "Feature", "properties": {"norad_id": 33637, "name": "FENGYUN 1C DEB", "group": "fengyun-1c-debris", "lat": -33.664865971892795, "lon": -154.48358895620075, "alt_km": 746.303576024874, "timestamp": "2025-12-12T05:47:29.057867+00:00", "meta": {"OBJECT_NAME": "FENGYUN 1C DEB", "OBJECT_ID": "1999-025DDW", "EPOCH": "2025-12-11T08:44:50.038656", "MEAN_MOTION": 14.36733805, "ECCENTRICITY": 0.00831045, "INCLINATION": 98.493, "RA_OF_ASC_NODE": 30.363, "ARG_OF_PERICENTER": 155.527, "MEAN_ANOMALY": 204.9897, "EPHEMERIS_TYPE": 0, "CLASSIFICATION_TYPE": "U", "NORAD_CAT_ID": 33637, "ELEMENT_SET_NO": 999, "REV_AT_EPOCH": 64818, "BSTAR": 0.0022658521, "MEAN_MOTION_DOT": 6.913e-05, "MEAN_MOTION_DDOT": 0}, "tle": {"line1": "1 33637U 99025DDW 25345.36446804  .00006913  00000+0  22659-2 0  9995", "line2": "2 33637  98.4930  30.3630 0083104 155.5270 204.9897 14.36733805648189"}}, "geometry": {"type": "Point", "coordinates": [-154.48358895620075, -33.664865971892795]}}, {"type": "Feature", "properties": {"norad_id": 33638, "name": "FENGYUN 1C DEB", "group": "fengyun-1c-debris", "lat": 72.64501989529137, "lon": 85.44806632780416, "alt_km": 1186.878473323387, "timestamp": "2025-12-12T05:47:29.057877+00:00", "meta": {"OBJECT_NAME": "FENGYUN 1C DEB", "OBJECT_ID": "1999-025DDX", "EPOCH": "2025-12-11T22:14:50.922528", "MEAN_MOTION": 13.69308763, "ECCENTRICITY": 0.02648049, "INCLINATION": 98.4644, "RA_OF_ASC_NODE": 236.7162, "ARG_OF_PERICENTER": 275.2453, "MEAN_ANOMALY": 81.8534, "EPHEMERIS_TYPE": 0, "CLASSIFICATION_TYPE": "U", "NORAD_CAT_ID": 33638, "ELEMENT_SET_NO": 999, "REV_AT_EPOCH": 60904, "BSTAR": 0.0019789268, "MEAN_MOTION_DOT": 2.159e-05, "MEAN_MOTION_DDOT": 0}, "tle": {"line1": "1 33638U 99025DDX 25345.92697827  .00002159  00000+0  19789-2 0  9999", "line2": "2 33638  98.4644 236.7162 0264804 275.2453  81.8534 13.69308763609043"}}, "geometry": {"type": "Point", "coordinates": [85.44806632780416, 72.64501989529137]}}, {"type": "Feature", "properties": {"norad_id": 33639, "name": "FENGYUN 1C DEB", "group": "fengyun-1c-debris", "lat": -76.82160559035171, "lon": 118.12886433701968, "alt_km": 729.696256199838, "timestamp": "2025-12-12T05:47:29.057887+00:00", "meta": {"OBJECT_NAME": "FENGYUN 1C DEB", "OBJECT_ID": "1999-025DDY", "EPOCH": "2025-12-03T23:45:48.189312", "MEAN_MOTION": 14.40248408, "ECCENTRICITY": 0.00493059, "INCLINATION": 98.7136, "RA_OF_ASC_NODE": 68.813, "ARG_OF_PERICENTER": 315.1865, "MEAN_ANOMALY": 44.5345, "EPHEMERIS_TYPE": 0, "CLASSIFICATION_TYPE": "U", "NORAD_CAT_ID": 33639, "ELEMENT_SET_NO": 999, "REV_AT_EPOCH": 60456, "BSTAR": 0.0043899516, "MEAN_MOTION_DOT": 0.00014079, "MEAN_MOTION_DDOT": 0}, "tle": {"line1": "1 33639U 99025DDY 25337.99014108  .00014079  00000+0  43900-2 0  9999", "line2": "2 33639  98.7136  68.8130 0049305 315.1865  44.5345 14.40248408604567"}}, "geometry": {"type": "Point", "coordinates": [118.12886433701968, -76.82160559035171]}}, {"type": "Feature", "properties": {"norad_id": 33640, "name": "FENGYUN 1C DEB", "group": "fengyun-1c-debris", "lat": 79.06470690352721, "lon": 162.6352124232311, "alt_km": 703.6577751808309, "timestamp": "2025-12-12T05:47:29.057897+00:00", "meta": {"OBJECT_NAME": "FENGYUN 1C DEB", "OBJECT_ID": "1999-025DDZ", "EPOCH": "2025-12-11T19:22:45.041664", "MEAN_MOTION": 14.45889666, "ECCENTRICITY": 0.00906976, "INCLINATION": 98.8406, "RA_OF_ASC_NODE": 288.5217, "ARG_OF_PERICENTER": 162.4466, "MEAN_ANOMALY": 197.9894, "EPHEMERIS_TYPE": 0, "CLASSIFICATION_TYPE": "U", "NORAD_CAT_ID": 33640, "ELEMENT_SET_NO": 999, "REV_AT_EPOCH": 92329, "BSTAR": 0.00074722735, "MEAN_MOTION_DOT": 2.744e-05, "MEAN_MOTION_DDOT": 0}, "tle": {"line1": "1 33640U 99025DDZ 25345.80746576  .00002744  00000+0  74723-3 0  9995", "line2": "2 33640  98.8406 288.5217 0090697 162.4466 197.9894 14.45889666923295"}}, "geometry": {"type": "Point", "coordinates": [162.6352124232311, 79.06470690352721]}}, {"type": "Feature", "properties": {"norad_id": 33648, "name": "FENGYUN 1C DEB", "group": "fengyun-1c-debris", "lat": 79.43877360320684, "lon": -70.45437279558112, "alt_km": 846.9170052869977, "timestamp": "2025-12-12T05:47:29.057908+00:00", "meta": {"OBJECT_NAME": "FENGYUN 1C DEB", "OBJECT_ID": "1999-025DEH", "EPOCH": "2025-12-10T17:40:17.298048", "MEAN_MOTION": 14.11774019, "ECCENTRICITY": 0.00687865, "INCLINATION": 98.7194, "RA_OF_ASC_NODE": 343.4805, "ARG_OF_PERICENTER": 179.859, "MEAN_ANOMALY": 180.2613, "EPHEMERIS_TYPE": 0, "CLASSIFICATION_TYPE": "U", "NORAD_CAT_ID": 33648, "ELEMENT_SET_NO": 999, "REV_AT_EPOCH": 64348, "BSTAR": 0.00017202181, "MEAN_MOTION_DOT": 2.78e-06, "MEAN_MOTION_DDOT": 0}, "tle": {"line1": "1 33648U 99025DEH 25344.73631132  .00000278  00000+0  17202-3 0  9994", "line2": "2 33648  98.7194 343.4805 0068786 179.8590 180.2613 14.11774019643486"}}, "geometry": {"type": "Point", "coordinates": [-70.45437279558112, 79.43877360320684]}}]}